H1 CPF 01  gfz 2021 12 10 13  8442 tandemx   
H2 1003001  6202 36605    2021 12 10 12 59 42 2021 12 15 00 00 42   120 1 1  0 0 0
H9
10 0 59560  56142.000000  0   -1925894.872  -2420882.510   6144344.985
10 0 59560  56262.000000  0   -2624395.144  -2823139.933   5698916.293
10 0 59560  56382.000000  0   -3283568.380  -3164212.787   5153254.158
10 0 59560  56502.000000  0   -3890764.279  -3438922.399   4516921.247
10 0 59560  56622.000000  0   -4434155.669  -3643461.027   3801084.601
10 0 59560  56742.000000  0   -4902973.916  -3775445.728   3018322.785
10 0 59560  56862.000000  0   -5287728.371  -3833944.084   2182406.595
10 0 59560  56982.000000  0   -5580405.123  -3819471.105   1308054.329
10 0 59560  57102.000000  0   -5774637.807  -3733955.249    410666.690
10 0 59560  57222.000000  0   -5865847.021  -3580675.062   -493951.927
10 0 59560  57342.000000  0   -5851344.647  -3364168.427  -1389880.977
10 0 59560  57462.000000  0   -5730398.914  -3090115.421  -2261374.171
10 0 59560  57582.000000  0   -5504258.649  -2765198.605  -3093143.120
10 0 59560  57702.000000  0   -5176138.556  -2396945.730  -3870629.617
10 0 59560  57822.000000  0   -4751165.687  -1993558.187  -4580260.916
10 0 59560  57942.000000  0   -4236289.588  -1563730.364  -5209683.721
10 0 59560  58062.000000  0   -3640158.297  -1116463.637  -5747973.186
10 0 59560  58182.000000  0   -2972963.758   -660879.288  -6185812.812
10 0 59560  58302.000000  0   -2246261.213   -206034.952  -6515644.264
10 0 59560  58422.000000  0   -1472765.391    239251.713  -6731786.241
10 0 59560  58542.000000  0    -666128.421    666568.832  -6830520.969
10 0 59560  58662.000000  0     159296.526   1068064.854  -6810150.986
10 0 59560  58782.000000  0     988703.642   1436588.478  -6671024.836
10 0 59560  58902.000000  0    1807093.753   1765812.847  -6415534.420
10 0 59560  59022.000000  0    2599540.363   2050343.242  -6048078.190
10 0 59560  59142.000000  0    3351457.977   2285805.020  -5574992.854
10 0 59560  59262.000000  0    4048867.467   2468910.988  -5004454.137
10 0 59560  59382.000000  0    4678657.464   2597508.081  -4346347.868
10 0 59560  59502.000000  0    5228836.057   2670601.500  -3612108.802
10 0 59560  59622.000000  0    5688765.643   2688355.418  -2814530.248
10 0 59560  59742.000000  0    6049378.361   2652070.606  -1967548.109
10 0 59560  59862.000000  0    6303365.570   2564138.088  -1085998.124
10 0 59560  59982.000000  0    6445334.546   2427969.477   -185354.160
10 0 59560  60102.000000  0    6471929.667   2247905.501    718549.655
10 0 59560  60222.000000  0    6381911.456   2029104.055   1609804.124
10 0 59560  60342.000000  0    6176196.790   1777413.253   2472712.694
10 0 59560  60462.000000  0    5857853.963   1499229.305   3292077.747
10 0 59560  60582.000000  0    5432053.993   1201344.544   4053475.610
10 0 59560  60702.000000  0    4905978.792    890789.311   4743515.397
10 0 59560  60822.000000  0    4288691.602    574672.631   5350075.216
10 0 59560  60942.000000  0    3590971.500    260023.998   5862514.966
10 0 59560  61062.000000  0    2825114.792    -46359.137   6271858.623
10 0 59560  61182.000000  0    2004711.816   -338053.767   6570944.583
10 0 59560  61302.000000  0    1144402.020   -609142.728   6754545.856
10 0 59560  61422.000000  0     259609.391   -854332.993   6819457.061
10 0 59560  61542.000000  0    -633735.301  -1069057.693   6764545.740
10 0 59560  61662.000000  0   -1519480.578  -1249561.051   6590770.137
10 0 59560  61782.000000  0   -2381544.864  -1392964.041   6301162.520
10 0 59560  61902.000000  0   -3204206.397  -1497309.542   5900779.986
10 0 59560  62022.000000  0   -3972391.907  -1561587.915   5396624.178
10 0 59560  62142.000000  0   -4671958.182  -1585742.957   4797524.928
10 0 59560  62262.000000  0   -5289959.460  -1570656.443   4113990.554
10 0 59560  62382.000000  0   -5814894.840  -1518111.322   3358026.369
10 0 59560  62502.000000  0   -6236930.388  -1430734.530   2542925.892
10 0 59560  62622.000000  0   -6548093.652  -1311921.610   1683037.760
10 0 59560  62742.000000  0   -6742434.563  -1165743.968    793507.974
10 0 59560  62862.000000  0   -6816144.614   -996840.367   -109994.686
10 0 59560  62982.000000  0   -6767633.496   -810295.939  -1011563.427
10 0 59560  63102.000000  0   -6597560.698   -611511.950  -1895342.736
10 0 59560  63222.000000  0   -6308821.578   -406069.740  -2745814.287
10 0 59560  63342.000000  0   -5906490.684   -199593.286  -3548075.445
10 0 59560  63462.000000  0   -5397720.471      2388.252  -4288104.229
10 0 59560  63582.000000  0   -4791600.331    194573.359  -4953002.715
10 0 59560  63702.000000  0   -4098981.668    372013.318  -5531216.545
10 0 59560  63822.000000  0   -3332272.292    530226.307  -6012727.506
10 0 59560  63942.000000  0   -2505205.566    665298.076  -6389215.298
10 0 59560  64062.000000  0   -1632591.410    773968.202  -6654189.182
10 0 59560  64182.000000  0    -730050.903    853700.492  -6803089.537
10 0 59560  64302.000000  0     186259.403    902736.543  -6833356.287
10 0 59560  64422.000000  0    1099928.502    920131.112  -6744468.142
10 0 59560  64542.000000  0    1994578.181    905769.482  -6537953.287
10 0 59560  64662.000000  0    2854150.958    860366.786  -6217365.811
10 0 59560  64782.000000  0    3663193.762    785449.069  -5788230.402
10 0 59560  64902.000000  0    4407132.638    683315.616  -5257956.215
10 0 59560  65022.000000  0    5072536.499    556983.714  -4635720.832
10 0 59560  65142.000000  0    5647365.644    410116.919  -3932322.549
10 0 59560  65262.000000  0    6121198.061    246937.048  -3160002.206
10 0 59560  65382.000000  0    6485429.388     72122.288  -2332237.918
10 0 59560  65502.000000  0    6733442.944   -109307.095  -1463513.648
10 0 59560  65622.000000  0    6860742.156   -292112.573   -569064.510
10 0 59560  65742.000000  0    6865042.183   -470967.343    335394.040
10 0 59560  65862.000000  0    6746319.104   -640590.270   1233948.840
10 0 59560  65982.000000  0    6506813.340   -795879.795   2110777.381
10 0 59560  66102.000000  0    6150987.625   -932044.224   2950436.337
10 0 59560  66222.000000  0    5685438.049  -1044724.974   3738141.499
10 0 59560  66342.000000  0    5118765.037  -1130109.508   4460033.088
10 0 59560  66462.000000  0    4461405.024  -1185032.425   5103423.076
10 0 59560  66582.000000  0    3725427.857  -1207059.835   5657017.728
10 0 59560  66702.000000  0    2924305.993  -1194556.604   6111113.152
10 0 59560  66822.000000  0    2072660.072  -1146735.931   6457760.130
10 0 59560  66942.000000  0    1185987.388  -1063689.763   6690897.908
10 0 59560  67062.000000  0     280375.777   -946399.152   6806454.887
10 0 59560  67182.000000  0    -627789.609   -796724.251   6802414.116
10 0 59560  67302.000000  0   -1522121.705   -617375.054   6678845.299
10 0 59560  67422.000000  0   -2386525.699   -411862.487   6437903.499
10 0 59560  67542.000000  0   -3205487.431   -184430.775   6083794.594
10 0 59560  67662.000000  0   -3964353.171     60027.881   5622707.628
10 0 59560  67782.000000  0   -4649596.225    316074.901   5062712.953
10 0 59560  67902.000000  0   -5249064.583    577841.299   4413626.702
10 0 59560  68022.000000  0   -5752205.087    839156.226   3686843.112
10 0 59560  68142.000000  0   -6150257.990   1093685.519   2895137.057
10 0 59560  68262.000000  0   -6436419.344   1335077.204   2052440.058
10 0 59560  68382.000000  0   -6605966.263   1557110.061   1173592.420
10 0 59560  68502.000000  0   -6656342.300   1753842.316    274075.971
10 0 59560  68622.000000  0   -6587198.205   1919756.305   -630267.552
10 0 59560  68742.000000  0   -6400387.483   2049894.549  -1523524.554
10 0 59560  68862.000000  0   -6099918.359   2139984.773  -2389997.669
10 0 59560  68982.000000  0   -5691862.807   2186550.990  -3214489.453
10 0 59560  69102.000000  0   -5184223.799   2187006.766  -3982573.900
10 0 59560  69222.000000  0   -4586766.533   2139728.422  -4680848.964
10 0 59560  69342.000000  0   -3910818.974   2044107.538  -5297166.298
10 0 59560  69462.000000  0   -3169047.378   1900582.076  -5820834.352
10 0 59560  69582.000000  0   -2375212.995   1710645.879  -6242793.800
10 0 59560  69702.000000  0   -1543912.719   1476836.319  -6555763.907
10 0 59560  69822.000000  0    -690309.963   1202700.520  -6754355.563
10 0 59560  69942.000000  0     170137.795    892741.208  -6835153.637
10 0 59560  70062.000000  0    1021951.470    552344.073  -6796769.180
10 0 59560  70182.000000  0    1849902.787    187686.113  -6639862.957
10 0 59560  70302.000000  0    2639280.816   -194373.865  -6367134.332
10 0 59560  70422.000000  0    3376148.438   -586420.113  -5983280.333
10 0 59560  70542.000000  0    4047585.913   -980619.326  -5494921.976
10 0 59560  70662.000000  0    4641917.409  -1368872.027  -4910501.585
10 0 59560  70782.000000  0    5148919.395  -1742975.328  -4240148.770
10 0 59560  70902.000000  0    5560004.345  -2094792.503  -3495515.265
10 0 59560  71022.000000  0    5868376.547  -2416426.326  -2689580.722
10 0 59560  71142.000000  0    6069155.623  -2700392.704  -1836431.115
10 0 59560  71262.000000  0    6159463.710  -2939790.085   -951013.695
10 0 59560  71382.000000  0    6138474.600  -3128460.591    -48873.128
10 0 59560  71502.000000  0    6007422.174  -3261138.771    854126.775
10 0 59560  71622.000000  0    5769568.489  -3333584.128   1742089.821
10 0 59560  71742.000000  0    5430128.875  -3342692.841   2599377.647
10 0 59560  71862.000000  0    4996157.341  -3286586.194   3410892.922
10 0 59560  71982.000000  0    4476396.437  -3164672.792   4162351.980
10 0 59560  72102.000000  0    3881096.254  -2977684.288   4840539.592
10 0 59560  72222.000000  0    3221805.041  -2727684.586   5433544.023
10 0 59560  72342.000000  0    2511137.008  -2418049.930   5930964.196
10 0 59560  72462.000000  0    1762525.061  -2053422.620   6324087.764
10 0 59560  72582.000000  0     989962.382  -1639639.675   6606038.100
99
